start=new Date('2022-12-30T00:00:00.000Z').valueOf();
sats=[{"FILE":"3725943","COUNTRY_CODE":"US","CLASSIFICATION_TYPE":"U","ARG_OF_PERICENTER":"70.6314","MEAN_MOTION_DDOT":"0.0000000000000","LAUNCH_DATE":"2020-10-24","TLE_LINE2":"2 46749  53.0530 156.5078 0001764  70.6314 289.4865 15.06393688120935","SITE":"AFETR","NORAD_CAT_ID":"46749","TIME_SYSTEM":"UTC","GP_ID":"221745156","REV_AT_EPOCH":"12093","APOAPSIS":"548.455","BSTAR":"-0.00010284000000","OBJECT_ID":"2020-074L","EPOCH":"2022-12-29T13:51:29.184768","ECCENTRICITY":"0.00017640","RCS_SIZE":"LARGE","ELEMENT_SET_NO":"999","DECAY_DATE":null,"OBJECT_NAME":"STARLINK-1911","CENTER_NAME":"EARTH","EPHEMERIS_TYPE":"0","PERIAPSIS":"546.011","PERIOD":"95.593","REF_FRAME":"TEME","MEAN_ELEMENT_THEORY":"SGP4","RA_OF_ASC_NODE":"156.5078","TLE_LINE1":"1 46749U 20074L   22363.57742112 -.00001813  00000-0 -10284-3 0  9991","INCLINATION":"53.0530","MEAN_MOTION_DOT":"-0.00001813","SEMIMAJOR_AXIS":"6925.368","OBJECT_TYPE":"PAYLOAD","MEAN_MOTION":"15.06393688","MEAN_ANOMALY":"289.4865"},{"INCLINATION":"53.0527","MEAN_MOTION_DOT":"-0.00000838","TLE_LINE1":"1 46751U 20074N   22363.17565455 -.00000838  00000-0 -37385-4 0  9991","RA_OF_ASC_NODE":"158.3139","MEAN_ELEMENT_THEORY":"SGP4","MEAN_ANOMALY":"272.1197","MEAN_MOTION":"15.06393382","OBJECT_TYPE":"PAYLOAD","SEMIMAJOR_AXIS":"6925.369","EPHEMERIS_TYPE":"0","CENTER_NAME":"EARTH","REF_FRAME":"TEME","PERIOD":"95.593","PERIAPSIS":"546.439","BSTAR":"-0.00003738500000","OBJECT_ID":"2020-074N","APOAPSIS":"548.029","DECAY_DATE":null,"OBJECT_NAME":"STARLINK-1920","ELEMENT_SET_NO":"999","RCS_SIZE":"LARGE","ECCENTRICITY":"0.00011480","EPOCH":"2022-12-29T04:12:56.553120","ARG_OF_PERICENTER":"87.9923","CLASSIFICATION_TYPE":"U","COUNTRY_CODE":"US","FILE":"3725790","REV_AT_EPOCH":"12085","GP_ID":"221734493","TIME_SYSTEM":"UTC","NORAD_CAT_ID":"46751","MEAN_MOTION_DDOT":"0.0000000000000","LAUNCH_DATE":"2020-10-24","SITE":"AFETR","TLE_LINE2":"2 46751  53.0527 158.3139 0001148  87.9923 272.1197 15.06393382120854"},{"CENTER_NAME":"EARTH","EPHEMERIS_TYPE":"0","REF_FRAME":"TEME","PERIOD":"95.594","PERIAPSIS":"546.461","TLE_LINE1":"1 46752U 20074P   22363.85019239  .00003719  00000-0  26859-3 0  9993","RA_OF_ASC_NODE":"155.2818","MEAN_ELEMENT_THEORY":"SGP4","MEAN_MOTION_DOT":"0.00003719","INCLINATION":"53.0538","OBJECT_TYPE":"PAYLOAD","SEMIMAJOR_AXIS":"6925.427","MEAN_ANOMALY":"296.2787","MEAN_MOTION":"15.06374262","COUNTRY_CODE":"US","FILE":"3725962","ARG_OF_PERICENTER":"63.8326","CLASSIFICATION_TYPE":"U","NORAD_CAT_ID":"46752","SITE":"AFETR","TLE_LINE2":"2 46752  53.0538 155.2818 0001201  63.8326 296.2787 15.06374262120967","LAUNCH_DATE":"2020-10-24","MEAN_MOTION_DDOT":"0.0000000000000","REV_AT_EPOCH":"12096","GP_ID":"221745730","TIME_SYSTEM":"UTC","OBJECT_ID":"2020-074P","BSTAR":"0.00026859000000","APOAPSIS":"548.124","ECCENTRICITY":"0.00012010","EPOCH":"2022-12-29T20:24:16.622496","OBJECT_NAME":"STARLINK-1921","DECAY_DATE":null,"ELEMENT_SET_NO":"999","RCS_SIZE":"LARGE"},{"TLE_LINE1":"1 46753U 20074Q   22363.75066031 -.00005367  00000-0 -34166-3 0  9998","RA_OF_ASC_NODE":"155.7295","MEAN_ELEMENT_THEORY":"SGP4","MEAN_MOTION_DOT":"-0.00005367","INCLINATION":"53.0524","OBJECT_TYPE":"PAYLOAD","SEMIMAJOR_AXIS":"6925.348","MEAN_ANOMALY":"298.7774","MEAN_MOTION":"15.06400214","CENTER_NAME":"EARTH","EPHEMERIS_TYPE":"0","PERIOD":"95.592","REF_FRAME":"TEME","PERIAPSIS":"546.124","OBJECT_ID":"2020-074Q","BSTAR":"-0.00034166000000","APOAPSIS":"548.302","ECCENTRICITY":"0.00015720","EPOCH":"2022-12-29T18:00:57.050784","OBJECT_NAME":"STARLINK-1922","DECAY_DATE":null,"ELEMENT_SET_NO":"999","RCS_SIZE":"LARGE","COUNTRY_CODE":"US","FILE":"3725965","ARG_OF_PERICENTER":"61.3373","CLASSIFICATION_TYPE":"U","NORAD_CAT_ID":"46753","TLE_LINE2":"2 46753  53.0524 155.7295 0001572  61.3373 298.7774 15.06400214120963","SITE":"AFETR","LAUNCH_DATE":"2020-10-24","MEAN_MOTION_DDOT":"0.0000000000000","REV_AT_EPOCH":"12096","GP_ID":"221745775","TIME_SYSTEM":"UTC"},{"BSTAR":"0.00054554000000","OBJECT_ID":"2020-074R","APOAPSIS":"548.385","DECAY_DATE":null,"OBJECT_NAME":"STARLINK-1923","RCS_SIZE":"LARGE","ELEMENT_SET_NO":"999","ECCENTRICITY":"0.00015400","EPOCH":"2022-12-29T18:11:34.275840","ARG_OF_PERICENTER":"77.0608","CLASSIFICATION_TYPE":"U","COUNTRY_CODE":"US","FILE":"3725965","REV_AT_EPOCH":"12095","GP_ID":"221746048","TIME_SYSTEM":"UTC","NORAD_CAT_ID":"46754","LAUNCH_DATE":"2020-10-24","MEAN_MOTION_DDOT":"0.0000000000000","TLE_LINE2":"2 46754  53.0544 155.6895 0001540  77.0608 283.0553 15.06365629120952","SITE":"AFETR","INCLINATION":"53.0544","MEAN_MOTION_DOT":"0.00007846","TLE_LINE1":"1 46754U 20074R   22363.75803560  .00007846  00000-0  54554-3 0  9990","RA_OF_ASC_NODE":"155.6895","MEAN_ELEMENT_THEORY":"SGP4","MEAN_ANOMALY":"283.0553","MEAN_MOTION":"15.06365629","OBJECT_TYPE":"PAYLOAD","SEMIMAJOR_AXIS":"6925.454","EPHEMERIS_TYPE":"0","CENTER_NAME":"EARTH","REF_FRAME":"TEME","PERIOD":"95.594","PERIAPSIS":"546.252"},{"MEAN_MOTION_DOT":"0.00000088","INCLINATION":"53.0532","RA_OF_ASC_NODE":"162.1530","MEAN_ELEMENT_THEORY":"SGP4","TLE_LINE1":"1 46755U 20074S   22363.43136785  .00000088  00000-0  24843-4 0  9994","MEAN_MOTION":"15.06395786","MEAN_ANOMALY":"302.1939","SEMIMAJOR_AXIS":"6925.361","OBJECT_TYPE":"PAYLOAD","EPHEMERIS_TYPE":"0","CENTER_NAME":"EARTH","PERIAPSIS":"545.681","PERIOD":"95.592","REF_FRAME":"TEME","APOAPSIS":"548.772","OBJECT_ID":"2020-074S","BSTAR":"0.00002484300000","RCS_SIZE":"LARGE","ELEMENT_SET_NO":"999","OBJECT_NAME":"STARLINK-1924","DECAY_DATE":null,"EPOCH":"2022-12-29T10:21:10.182240","ECCENTRICITY":"0.00022310","CLASSIFICATION_TYPE":"U","ARG_OF_PERICENTER":"57.9266","FILE":"3725790","COUNTRY_CODE":"US","TIME_SYSTEM":"UTC","GP_ID":"221734992","REV_AT_EPOCH":"12082","SITE":"AFETR","TLE_LINE2":"2 46755  53.0532 162.1530 0002231  57.9266 302.1939 15.06395786120828","MEAN_MOTION_DDOT":"0.0000000000000","LAUNCH_DATE":"2020-10-24","NORAD_CAT_ID":"46755"},{"PERIAPSIS":"546.338","REF_FRAME":"TEME","PERIOD":"95.592","CENTER_NAME":"EARTH","EPHEMERIS_TYPE":"0","SEMIMAJOR_AXIS":"6925.334","OBJECT_TYPE":"PAYLOAD","MEAN_MOTION":"15.06404707","MEAN_ANOMALY":"273.8527","RA_OF_ASC_NODE":"160.6264","MEAN_ELEMENT_THEORY":"SGP4","TLE_LINE1":"1 46756U 20074T   22363.85897941 -.00000103  00000-0  11973-4 0  9998","INCLINATION":"53.0538","MEAN_MOTION_DOT":"-0.00000103","LAUNCH_DATE":"2020-10-24","MEAN_MOTION_DDOT":"0.0000000000000","SITE":"AFETR","TLE_LINE2":"2 46756  53.0538 160.6264 0001244  86.2604 273.8527 15.06404707120906","NORAD_CAT_ID":"46756","TIME_SYSTEM":"UTC","GP_ID":"221746059","REV_AT_EPOCH":"12090","FILE":"3725966","COUNTRY_CODE":"US","CLASSIFICATION_TYPE":"U","ARG_OF_PERICENTER":"86.2604","EPOCH":"2022-12-29T20:36:55.821024","ECCENTRICITY":"0.00012440","RCS_SIZE":"LARGE","ELEMENT_SET_NO":"999","DECAY_DATE":null,"OBJECT_NAME":"STARLINK-1925","APOAPSIS":"548.061","BSTAR":"0.00001197300000","OBJECT_ID":"2020-074T"},{"PERIOD":"95.592","REF_FRAME":"TEME","PERIAPSIS":"546.246","CENTER_NAME":"EARTH","EPHEMERIS_TYPE":"0","OBJECT_TYPE":"PAYLOAD","SEMIMAJOR_AXIS":"6925.333","MEAN_ANOMALY":"275.1636","MEAN_MOTION":"15.06405217","TLE_LINE1":"1 46757U 20074U   22363.87370132 -.00000459  00000-0 -11927-4 0  9993","RA_OF_ASC_NODE":"160.4003","MEAN_ELEMENT_THEORY":"SGP4","INCLINATION":"53.0554","MEAN_MOTION_DOT":"-0.00000459","NORAD_CAT_ID":"46757","MEAN_MOTION_DDOT":"0.0000000000000","LAUNCH_DATE":"2020-10-24","TLE_LINE2":"2 46757  53.0554 160.4003 0001374  84.9509 275.1636 15.06405217120900","SITE":"AFETR","GP_ID":"221745788","REV_AT_EPOCH":"12090","TIME_SYSTEM":"UTC","COUNTRY_CODE":"US","FILE":"3725966","ARG_OF_PERICENTER":"84.9509","CLASSIFICATION_TYPE":"U","ECCENTRICITY":"0.00013740","EPOCH":"2022-12-29T20:58:07.794048","DECAY_DATE":null,"OBJECT_NAME":"STARLINK-1926","ELEMENT_SET_NO":"999","RCS_SIZE":"LARGE","BSTAR":"-0.00001192700000","OBJECT_ID":"2020-074U","APOAPSIS":"548.149"},{"PERIAPSIS":"546.203","REF_FRAME":"TEME","PERIOD":"95.593","EPHEMERIS_TYPE":"0","CENTER_NAME":"EARTH","MEAN_MOTION":"15.06387267","MEAN_ANOMALY":"289.8967","SEMIMAJOR_AXIS":"6925.388","OBJECT_TYPE":"PAYLOAD","INCLINATION":"53.0547","MEAN_MOTION_DOT":"-0.00003028","RA_OF_ASC_NODE":"161.9290","MEAN_ELEMENT_THEORY":"SGP4","TLE_LINE1":"1 46758U 20074V   22363.47928201 -.00003028  00000-0 -18451-3 0  9999","TIME_SYSTEM":"UTC","GP_ID":"221736244","REV_AT_EPOCH":"12083","LAUNCH_DATE":"2020-10-24","MEAN_MOTION_DDOT":"0.0000000000000","SITE":"AFETR","TLE_LINE2":"2 46758  53.0547 161.9290 0001516  70.2185 289.8967 15.06387267120838","NORAD_CAT_ID":"46758","CLASSIFICATION_TYPE":"U","ARG_OF_PERICENTER":"70.2185","FILE":"3725790","COUNTRY_CODE":"US","RCS_SIZE":"LARGE","ELEMENT_SET_NO":"999","DECAY_DATE":null,"OBJECT_NAME":"STARLINK-1928","EPOCH":"2022-12-29T11:30:09.965664","ECCENTRICITY":"0.00015160","APOAPSIS":"548.302","BSTAR":"-0.00018451000000","OBJECT_ID":"2020-074V"},{"SEMIMAJOR_AXIS":"6925.370","OBJECT_TYPE":"PAYLOAD","MEAN_MOTION":"15.06392974","MEAN_ANOMALY":"298.6220","MEAN_ELEMENT_THEORY":"SGP4","RA_OF_ASC_NODE":"171.9749","TLE_LINE1":"1 46759U 20074W   22363.47467202 -.00000642  00000-0 -24221-4 0  9991","MEAN_MOTION_DOT":"-0.00000642","INCLINATION":"53.0544","PERIAPSIS":"546.374","REF_FRAME":"TEME","PERIOD":"95.593","CENTER_NAME":"EARTH","EPHEMERIS_TYPE":"0","EPOCH":"2022-12-29T11:23:31.662528","ECCENTRICITY":"0.00012440","RCS_SIZE":"LARGE","ELEMENT_SET_NO":"999","OBJECT_NAME":"STARLINK-1833","DECAY_DATE":null,"APOAPSIS":"548.097","OBJECT_ID":"2020-074W","BSTAR":"-0.00002422100000","TLE_LINE2":"2 46759  53.0544 171.9749 0001244  61.4894 298.6220 15.06392974120687","SITE":"AFETR","LAUNCH_DATE":"2020-10-24","MEAN_MOTION_DDOT":"0.0000000000000","NORAD_CAT_ID":"46759","TIME_SYSTEM":"UTC","GP_ID":"221734494","REV_AT_EPOCH":"12068","FILE":"3725790","COUNTRY_CODE":"US","CLASSIFICATION_TYPE":"U","ARG_OF_PERICENTER":"61.4894"}];
